     2.100          NAVIGATION                              RINEX VERSION / TYPE
fic2rin                                 02/28/2012 00:09:36 PGM / RUN BY / DATE
                                                            END OF HEADER
 8 12  2 27 17 59 44.0  .677071511745D-06  .000000000000D+00  .000000000000D+00
     .160000000000D+02 -.412500000000D+02  .350407453020D-08 -.101734399456D+01
    -.232458114624D-05  .120928696124D-01  .869296491146D-05  .515370467758D+04
     .151184000000D+06  .156462192535D-06 -.264607794694D+01 -.184401869774D-06
     .997936054351D+00  .229875000000D+03 -.297803610092D+01 -.757781564644D-08
    -.982183769039D-10  .100000000000D+01  .167700000000D+04  .000000000000D+00
     .240000000000D+01  .000000000000D+00 -.465661287308D-08  .160000000000D+02
     .149286000000D+06  .400000000000D+01
26 12  2 27 17 59 44.0 -.740075483918D-04 -.600266503170D-10  .000000000000D+00
     .100000000000D+01  .206250000000D+01  .438482550273D-08  .103178057341D+01
     .838190317154D-07  .208422085270D-01  .471808016300D-05  .515365332031D+04
     .151184000000D+06 -.357627868652D-06  .257914739527D+01  .316649675369D-07
     .984317742636D+00  .307687500000D+03  .117449918345D+01 -.843106547343D-08
    -.305727020472D-09  .100000000000D+01  .167700000000D+04  .000000000000D+00
     .240000000000D+01  .000000000000D+00 -.605359673500D-08  .100000000000D+01
     .150546000000D+06  .400000000000D+01
 3 12  2 27 19 59 44.0  .152895227075D-04  .511590769747D-11  .000000000000D+00
     .130000000000D+02 -.202187500000D+02  .529200614758D-08  .227773389555D+01
    -.121258199215D-05  .150427942863D-01  .547990202904D-05  .515370240784D+04
     .158384000000D+06  .124797224998D-06 -.778973526048D+00 -.284984707832D-06
     .930604668974D+00  .256968750000D+03  .117204215548D+01 -.828534511788D-08
     .156435087578D-09  .100000000000D+01  .167700000000D+04  .000000000000D+00
     .240000000000D+01  .000000000000D+00 -.419095158577D-08  .130000000000D+02
     .151206000000D+06  .400000000000D+01
 4 12  2 27 19 59 44.0  .106974039227D-03  .114823706099D-10  .000000000000D+00
     .900000000000D+01 -.621875000000D+01  .493806283300D-08 -.106616342146D+01
    -.949949026108D-07  .996134802699D-02  .929646193981D-05  .515380663681D+04
     .158384000000D+06  .169500708580D-06  .400173190145D+00  .175088644028D-06
     .938139974210D+00  .183593750000D+03  .832531603540D+00 -.819962726167D-08
    -.137862885400D-09  .100000000000D+01  .167700000000D+04  .000000000000D+00
     .240000000000D+01  .000000000000D+00 -.605359673500D-08  .900000000000D+01
     .151206000000D+06  .400000000000D+01
 8 12  2 27 19 59 44.0  .677537173033D-06  .000000000000D+00  .000000000000D+00
     .280000000000D+02 -.407500000000D+02  .359086385961D-08  .328184531917D-01
    -.227987766266D-05  .120938697364D-01  .820867717266D-05  .515370643616D+04
     .158384000000D+06  .122934579849D-06 -.264613278735D+01  .521540641785D-07
     .997934096966D+00  .238781250000D+03 -.297804388364D+01 -.778711007868D-08
    -.183221917643D-09  .100000000000D+01  .167700000000D+04  .000000000000D+00
     .240000000000D+01  .000000000000D+00 -.465661287308D-08  .280000000000D+02
     .151206000000D+06  .400000000000D+01
10 12  2 27 19 59 44.0 -.304300338030D-04 -.125055521494D-11  .000000000000D+00
     .290000000000D+02  .793125000000D+02  .488806075021D-08 -.184714369953D+01
     .393949449062D-05  .111989832949D-01  .703148543835D-05  .515367668343D+04
     .158384000000D+06  .132247805595D-06  .146824239010D+01 -.109896063805D-06
     .946303469635D+00  .234000000000D+03  .745938802362D+00 -.810998067039D-08
     .251439044874D-09  .100000000000D+01  .167700000000D+04  .000000000000D+00
     .240000000000D+01  .000000000000D+00 -.232830643654D-08  .290000000000D+02
     .151206000000D+06  .400000000000D+01
26 12  2 27 19 59 44.0 -.744392164052D-04 -.599129634793D-10  .000000000000D+00
     .270000000000D+02 -.403125000000D+01  .416017328792D-08  .208191806379D+01
    -.618398189545D-06  .208422896685D-01  .407174229622D-05  .515365542793D+04
     .158384000000D+06  .447034835815D-07  .257908731615D+01 -.486150383949D-06
     .984318762290D+00  .312718750000D+03  .117455335384D+01 -.783818363467D-08
    -.137148569931D-09  .100000000000D+01  .167700000000D+04  .000000000000D+00
     .240000000000D+01  .000000000000D+00 -.605359673500D-08  .270000000000D+02
     .151206000000D+06  .400000000000D+01
30 12  2 27 19 59 44.0 -.613122247159D-04 -.153477230924D-10  .000000000000D+00
     .330000000000D+02 -.110312500000D+02  .437482508617D-08 -.296748280739D+01
    -.545755028725D-06  .108931678114D-01  .825338065624D-05  .515362235069D+04
     .158384000000D+06  .147148966789D-06 -.179473802844D+01  .447034835815D-07
     .958544266965D+00  .218187500000D+03  .155416602329D+01 -.778961018282D-08
     .277868717205D-09  .100000000000D+01  .167700000000D+04  .000000000000D+00
     .485000000000D+01  .000000000000D+00 -.419095158577D-08  .330000000000D+02
     .151206000000D+06  .400000000000D+01
 1 12  2 27 20  0  0.0  .221436377615D-03  .864019966684D-11  .000000000000D+00
     .800000000000D+02 -.171562500000D+02  .449340145392D-08  .568928504556D+00
    -.100396573544D-05  .565244234167D-03  .962801277637D-05  .515366014099D+04
     .158400000000D+06 -.372529029846D-08  .394951704901D+00 -.111758708954D-07
     .960516845222D+00  .193843750000D+03  .834871260128D+00 -.795033116320D-08
    -.181436128972D-09  .100000000000D+01  .167700000000D+04  .000000000000D+00
     .240000000000D+01  .000000000000D+00  .838190317154D-08  .800000000000D+02
     .151206000000D+06  .400000000000D+01
 2 12  2 27 20  0  0.0  .380711164325D-03  .147792889038D-11  .000000000000D+00
     .280000000000D+02 -.962500000000D+01  .490270421731D-08  .214086986903D+01
    -.422820448875D-06  .109708254458D-01  .987760722637D-05  .515365715408D+04
     .158400000000D+06 -.253319740295D-06  .383157710548D+00  .139698386192D-06
     .939084235165D+00  .174906250000D+03 -.285395608394D+01 -.813319592311D-08
    -.193936649668D-09  .100000000000D+01  .167700000000D+04  .000000000000D+00
     .240000000000D+01  .000000000000D+00 -.172294676304D-07  .280000000000D+02
     .151206000000D+06  .400000000000D+01
 5 12  2 27 20  0  0.0 -.287747941911D-03 -.443378667114D-11  .000000000000D+00
     .850000000000D+02  .803125000000D+02  .481270046829D-08 -.222409257655D+01
     .396929681301D-05  .269377266522D-02  .773556530476D-05  .515361408997D+04
     .158400000000D+06  .186264514923D-08  .144615190139D+01 -.577419996262D-07
     .951414309996D+00  .227187500000D+03  .296598767146D+00 -.815962559544D-08
     .159649507186D-09  .100000000000D+01  .167700000000D+04  .000000000000D+00
     .240000000000D+01  .000000000000D+00 -.102445483208D-07  .850000000000D+02
     .151206000000D+06  .400000000000D+01
 6 12  2 27 20  0  0.0  .313119962811D-04  .795807864051D-12  .000000000000D+00
     .600000000000D+01 -.189062500000D+02  .521414576153D-08 -.207609255430D+01
    -.827014446259D-06  .707723107189D-02  .599771738052D-05  .515369301033D+04
     .158400000000D+06 -.128522515297D-06 -.703058038744D+00  .409781932831D-07
     .937593517253D+00  .254281250000D+03 -.603281921616D+00 -.839927843509D-08
     .148220459691D-09  .100000000000D+01  .167700000000D+04  .000000000000D+00
     .240000000000D+01  .000000000000D+00 -.512227416039D-08  .600000000000D+01
     .151206000000D+06  .400000000000D+01
 7 12  2 27 20  0  0.0  .603352673352D-04  .284217094304D-11  .000000000000D+00
     .102000000000D+03 -.427187500000D+02  .407409827397D-08  .641125356507D+00
    -.227242708206D-05  .510778301395D-02  .766851007938D-05  .515362558365D+04
     .158400000000D+06  .242143869400D-07 -.272748759572D+01  .186264514923D-07
     .975899456621D+00  .236343750000D+03 -.300978007589D+01 -.795104547867D-08
    -.228223792151D-09  .100000000000D+01  .167700000000D+04  .000000000000D+00
     .240000000000D+01  .000000000000D+00 -.107102096081D-07  .102000000000D+03
     .151206000000D+06  .400000000000D+01
 9 12  2 27 20  0  0.0  .141316093504D-03  .250111042988D-11  .000000000000D+00
     .280000000000D+02 -.495937500000D+02  .399338062605D-08 -.205984132066D-01
    -.249780714512D-05  .172249191673D-01  .826641917229D-05  .515363657379D+04
     .158400000000D+06 -.238418579102D-06 -.275386870612D+01  .130385160446D-07
     .984689522785D+00  .234406250000D+03  .160433411582D+01 -.815248244076D-08
    -.206080012631D-09  .100000000000D+01  .167700000000D+04  .000000000000D+00
     .240000000000D+01  .000000000000D+00 -.558793544769D-08  .280000000000D+02
     .151206000000D+06  .400000000000D+01
11 12  2 27 20  0  0.0 -.236559193581D-03 -.375166564481D-11  .000000000000D+00
     .490000000000D+02 -.340937500000D+02  .635383609135D-08  .800592707900D+00
    -.179372727871D-05  .127566516167D-01  .793300569057D-05  .515367442703D+04
     .158400000000D+06 -.156462192535D-06  .131701913799D+00  .353902578354D-07
     .888456136816D+00  .189843750000D+03  .103027133057D+01 -.907359223725D-08
    -.309655755548D-09  .100000000000D+01  .167700000000D+04  .000000000000D+00
     .240000000000D+01  .000000000000D+00 -.116415321827D-07  .490000000000D+02
     .151206000000D+06  .400000000000D+01
12 12  2 27 20  0  0.0  .548800453544D-04  .216004991671D-11  .000000000000D+00
     .720000000000D+02 -.565625000000D+01  .414695845175D-08  .509678003620D+00
    -.361353158951D-06  .389246444684D-02  .819936394691D-05  .515356029510D+04
     .158400000000D+06  .707805156708D-07 -.167158648022D+01  .502914190292D-07
     .978402630877D+00  .228906250000D+03 -.532950389694D-01 -.789282876800D-08
     .297869550320D-09  .100000000000D+01  .167700000000D+04  .000000000000D+00
     .240000000000D+01  .000000000000D+00 -.121071934700D-07  .720000000000D+02
     .151206000000D+06  .400000000000D+01
